{"type": "FeatureCollection", "features": [ {"type": "Feature", "properties": {"norad_id": 30242, "name": "FENGYUN 1C DEB", "group": "fengyun-1c-debris", "lat": -48.85672757676229, "lon": 45.54923281695213, "alt_km": 836.5225564530629, "timestamp": "2025-12-27T15:27:11.465609+00:00", "meta": {"OBJECT_NAME": "FENGYUN 1C DEB", "OBJECT_ID": "1999-025XB", "EPOCH": "2025-12-27T02:26:16.334016", "MEAN_MOTION": 14.17672057, "ECCENTRICITY": 0.00104031, "INCLINATION": 98.6823, "RA_OF_ASC_NODE": 34.9468, "ARG_OF_PERICENTER": 14.0188, "MEAN_ANOMALY": 50.3836, "EPHEMERIS_TYPE": 0, "CLASSIFICATION_TYPE": "U", "NORAD_CAT_ID": 30242, "ELEMENT_SET_NO": 999, "REV_AT_EPOCH": 97630, "BSTAR": 0.00062226521, "MEAN_MOTION_DOT": 1.224e-05, "MEAN_MOTION_DDOT": 0}, "tle": {"line1": "1 30242U 99025XB  25361.10157794  .00001224  00000+0  62227-3 0  9997", "line2": "2 30242  98.6823  34.9468 0010403  14.0188  50.3836 14.17672057976303"}}, "geometry": {"type": "Point", "coordinates": [45.54923281695213, -48.85672757676229]}}, {"type": "Feature", "properties": {"norad_id": 30243, "name": "FENGYUN 1C DEB", "group": "fengyun-1c-debris", "lat": 32.739961362914094, "lon": -161.72456012124718, "alt_km": 843.2190712029533, "timestamp": "2025-12-27T15:27:11.465620+00:00", "meta": {"OBJECT_NAME": "FENGYUN 1C DEB", "OBJECT_ID": "1999-025XC", "EPOCH": "2025-12-26T23:36:24.424992", "MEAN_MOTION": 14.13042655, "ECCENTRICITY": 0.0013171, "INCLINATION": 98.6927, "RA_OF_ASC_NODE": 11.9892, "ARG_OF_PERICENTER": 81.5858, "MEAN_ANOMALY": 308.1469, "EPHEMERIS_TYPE": 0, "CLASSIFICATION_TYPE": "U", "NORAD_CAT_ID": 30243, "ELEMENT_SET_NO": 999, "REV_AT_EPOCH": 97480, "BSTAR": 0.00043016, "MEAN_MOTION_DOT": 7.61e-06, "MEAN_MOTION_DDOT": 0}, "tle": {"line1": "1 30243U 99025XC  25360.98361603  .00000761  00000+0  43016-3 0  9999", "line2": "2 30243  98.6927  11.9892 0013171  81.5858 308.1469 14.13042655974803"}}, "geometry": {"type": "Point", "coordinates": [-161.72456012124718, 32.739961362914094]}}, {"type": "Feature", "properties": {"norad_id": 30244, "name": "FENGYUN 1C DEB", "group": "fengyun-1c-debris", "lat": 80.79863489948669, "lon": 167.8409542468211, "alt_km": 841.2218950612951, "timestamp": "2025-12-27T15:27:11.465630+00:00", "meta": {"OBJECT_NAME": "FENGYUN 1C DEB", "OBJECT_ID": "1999-025XD", "EPOCH": "2025-12-27T05:26:10.395744", "MEAN_MOTION": 14.15037642, "ECCENTRICITY": 0.00090053, "INCLINATION": 99.1431, "RA_OF_ASC_NODE": 251.2335, "ARG_OF_PERICENTER": 272.2452, "MEAN_ANOMALY": 211.7858, "EPHEMERIS_TYPE": 0, "CLASSIFICATION_TYPE": "U", "NORAD_CAT_ID": 30244, "ELEMENT_SET_NO": 999, "REV_AT_EPOCH": 97551, "BSTAR": 0.00041952671, "MEAN_MOTION_DOT": 7.66e-06, "MEAN_MOTION_DDOT": 0}, "tle": {"line1": "1 30244U 99025XD  25361.22650921  .00000766  00000+0  41953-3 0  9995", "line2": "2 30244  99.1431 251.2335 0009005 272.2452 211.7858 14.15037642975513"}}, "geometry": {"type": "Point", "coordinates": [167.8409542468211, 80.79863489948669]}}, {"type": "Feature", "properties": {"norad_id": 30245, "name": "FENGYUN 1C DEB", "group": "fengyun-1c-debris", "lat": 75.88121069831357, "lon": -153.1851271642489, "alt_km": 1005.8220172314204, "timestamp": "2025-12-27T15:27:11.465640+00:00", "meta": {"OBJECT_NAME": "FENGYUN 1C DEB", "OBJECT_ID": "1999-025XE", "EPOCH": "2025-12-27T06:14:36.489120", "MEAN_MOTION": 13.79101384, "ECCENTRICITY": 0.01928491, "INCLINATION": 98.8904, "RA_OF_ASC_NODE": 347.9726, "ARG_OF_PERICENTER": 211.99, "MEAN_ANOMALY": 146.9428, "EPHEMERIS_TYPE": 0, "CLASSIFICATION_TYPE": "U", "NORAD_CAT_ID": 30245, "ELEMENT_SET_NO": 999, "REV_AT_EPOCH": 94894, "BSTAR": 0.00099418094, "MEAN_MOTION_DOT": 1.127e-05, "MEAN_MOTION_DDOT": 0}, "tle": {"line1": "1 30245U 99025XE  25361.26014455  .00001127  00000+0  99418-3 0  9997", "line2": "2 30245  98.8904 347.9726 0192849 211.9900 146.9428 13.79101384948942"}}, "geometry": {"type": "Point", "coordinates": [-153.1851271642489, 75.88121069831357]}}, {"type": "Feature", "properties": {"norad_id": 30246, "name": "FENGYUN 1C DEB", "group": "fengyun-1c-debris", "lat": 68.64866095782607, "lon": -13.870665093071716, "alt_km": 919.6023617821347, "timestamp": "2025-12-27T15:27:11.465650+00:00", "meta": {"OBJECT_NAME": "FENGYUN 1C DEB", "OBJECT_ID": "1999-025XF", "EPOCH": "2025-12-27T08:02:30.786720", "MEAN_MOTION": 13.37025026, "ECCENTRICITY": 0.03704165, "INCLINATION": 98.6739, "RA_OF_ASC_NODE": 142.8812, "ARG_OF_PERICENTER": 63.0963, "MEAN_ANOMALY": 357.8066, "EPHEMERIS_TYPE": 0, "CLASSIFICATION_TYPE": "U", "NORAD_CAT_ID": 30246, "ELEMENT_SET_NO": 999, "REV_AT_EPOCH": 92335, "BSTAR": 0.00031557531, "MEAN_MOTION_DOT": 2.11e-06, "MEAN_MOTION_DDOT": 0}, "tle": {"line1": "1 30246U 99025XF  25361.33507855  .00000211  00000+0  31558-3 0  9991", "line2": "2 30246  98.6739 142.8812 0370416  63.0963 357.8066 13.37025026923359"}}, "geometry": {"type": "Point", "coordinates": [-13.870665093071716, 68.64866095782607]}}, {"type": "Feature", "properties": {"norad_id": 30247, "name": "FENGYUN 1C DEB", "group": "fengyun-1c-debris", "lat": -69.10788162987224, "lon": 66.35521172224334, "alt_km": 621.9989225099362, "timestamp": "2025-12-27T15:27:11.465660+00:00", "meta": {"OBJECT_NAME": "FENGYUN 1C DEB", "OBJECT_ID": "1999-025XG", "EPOCH": "2025-12-26T17:09:12.019680", "MEAN_MOTION": 14.59732736, "ECCENTRICITY": 0.01912316, "INCLINATION": 98.2762, "RA_OF_ASC_NODE": 267.8438, "ARG_OF_PERICENTER": 308.6541, "MEAN_ANOMALY": 103.885, "EPHEMERIS_TYPE": 0, "CLASSIFICATION_TYPE": "U", "NORAD_CAT_ID": 30247, "ELEMENT_SET_NO": 999, "REV_AT_EPOCH": 97486, "BSTAR": 0.0036271723, "MEAN_MOTION_DOT": 0.00022376, "MEAN_MOTION_DDOT": 0}, "tle": {"line1": "1 30247U 99025XG  25360.71472245  .00022376  00000+0  36272-2 0  9990", "line2": "2 30247  98.2762 267.8438 0191231 308.6541 103.8850 14.59732736974860"}}, "geometry": {"type": "Point", "coordinates": [66.35521172224334, -69.10788162987224]}}, {"type": "Feature", "properties": {"norad_id": 30248, "name": "FENGYUN 1C DEB", "group": "fengyun-1c-debris", "lat": -71.25136116562932, "lon": -144.62167569363382, "alt_km": 721.1806279775083, "timestamp": "2025-12-27T15:27:11.465670+00:00", "meta": {"OBJECT_NAME": "FENGYUN 1C DEB", "OBJECT_ID": "1999-025XH", "EPOCH": "2025-12-26T23:20:22.639200", "MEAN_MOTION": 14.59674576, "ECCENTRICITY": 0.002802, "INCLINATION": 99.1007, "RA_OF_ASC_NODE": 186.4624, "ARG_OF_PERICENTER": 105.9691, "MEAN_ANOMALY": 254.4596, "EPHEMERIS_TYPE": 0, "CLASSIFICATION_TYPE": "U", "NORAD_CAT_ID": 30248, "ELEMENT_SET_NO": 999, "REV_AT_EPOCH": 97636, "BSTAR": 0.0045991, "MEAN_MOTION_DOT": 0.00022047, "MEAN_MOTION_DDOT": 0}, "tle": {"line1": "1 30248U 99025XH  25360.97248425  .00022047  00000+0  45991-2 0  9993", "line2": "2 30248  99.1007 186.4624 0028020 105.9691 254.4596 14.59674576976369"}}, "geometry": {"type": "Point", "coordinates": [-144.62167569363382, -71.25136116562932]}}, {"type": "Feature", "properties": {"norad_id": 30249, "name": "FENGYUN 1C DEB", "group": "fengyun-1c-debris", "lat": -81.02262339882267, "lon": -105.8920682423572, "alt_km": 704.7247863496023, "timestamp": "2025-12-27T15:27:11.465680+00:00", "meta": {"OBJECT_NAME": "FENGYUN 1C DEB", "OBJECT_ID": "1999-025XJ", "EPOCH": "2025-12-27T05:08:34.423584", "MEAN_MOTION": 14.58089901, "ECCENTRICITY": 0.00270131, "INCLINATION": 98.9587, "RA_OF_ASC_NODE": 166.7379, "ARG_OF_PERICENTER": 356.2531, "MEAN_ANOMALY": 180.834, "EPHEMERIS_TYPE": 0, "CLASSIFICATION_TYPE": "U", "NORAD_CAT_ID": 30249, "ELEMENT_SET_NO": 999, "REV_AT_EPOCH": 97774, "BSTAR": 0.0037606355, "MEAN_MOTION_DOT": 0.00017386, "MEAN_MOTION_DDOT": 0}, "tle": {"line1": "1 30249U 99025XJ  25361.21428731  .00017386  00000+0  37606-2 0  9996", "line2": "2 30249  98.9587 166.7379 0027013 356.2531 180.8340 14.58089901977746"}}, "geometry": {"type": "Point", "coordinates": [-105.8920682423572, -81.02262339882267]}}, {"type": "Feature", "properties": {"norad_id": 30250, "name": "FENGYUN 1C DEB", "group": "fengyun-1c-debris", "lat": -35.56280420722351, "lon": 166.663494145115, "alt_km": 853.3685507202154, "timestamp": "2025-12-27T15:27:11.465690+00:00", "meta": {"OBJECT_NAME": "FENGYUN 1C DEB", "OBJECT_ID": "1999-025XK", "EPOCH": "2025-12-26T23:16:28.744032", "MEAN_MOTION": 14.01638594, "ECCENTRICITY": 0.0068468, "INCLINATION": 98.7545, "RA_OF_ASC_NODE": 352.3416, "ARG_OF_PERICENTER": 183.0323, "MEAN_ANOMALY": 232.8815, "EPHEMERIS_TYPE": 0, "CLASSIFICATION_TYPE": "U", "NORAD_CAT_ID": 30250, "ELEMENT_SET_NO": 999, "REV_AT_EPOCH": 96691, "BSTAR": 0.00024136, "MEAN_MOTION_DOT": 3.31e-06, "MEAN_MOTION_DDOT": 0}, "tle": {"line1": "1 30250U 99025XK  25360.96977713  .00000331  00000+0  24136-3 0  9995", "line2": "2 30250  98.7545 352.3416 0068468 183.0323 232.8815 14.01638594966917"}}, "geometry": {"type": "Point", "coordinates": [166.663494145115, -35.56280420722351]}}, {"type": "Feature", "properties": {"norad_id": 30251, "name": "FENGYUN 1C DEB", "group": "fengyun-1c-debris", "lat": -34.5033409700609, "lon": -153.17685726963757, "alt_km": 771.1135290734173, "timestamp": "2025-12-27T15:27:11.465700+00:00", "meta": {"OBJECT_NAME": "FENGYUN 1C DEB", "OBJECT_ID": "1999-025XL", "EPOCH": "2025-12-27T02:46:26.128416", "MEAN_MOTION": 14.29339997, "ECCENTRICITY": 0.00513387, "INCLINATION": 99.0487, "RA_OF_ASC_NODE": 199.9862, "ARG_OF_PERICENTER": 288.3742, "MEAN_ANOMALY": 199.4455, "EPHEMERIS_TYPE": 0, "CLASSIFICATION_TYPE": "U", "NORAD_CAT_ID": 30251, "ELEMENT_SET_NO": 999, "REV_AT_EPOCH": 98347, "BSTAR": 0.00056289269, "MEAN_MOTION_DOT": 1.406e-05, "MEAN_MOTION_DDOT": 0}, "tle": {"line1": "1 30251U 99025XL  25361.11558019  .00001406  00000+0  56289-3 0  9996", "line2": "2 30251  99.0487 199.9862 0051338 288.3742 199.4455 14.29339997983472"}}, "geometry": {"type": "Point", "coordinates": [-153.17685726963757, -34.5033409700609]}}]}